NORAD_CAT_ID,OBJECT_NAME,OBJECT_TYPE,EPOCH,MEAN_MOTION,ECCENTRICITY,INCLINATION,RA_OF_ASC_NODE,ARG_OF_PERICENTER,MEAN_ANOMALY,BSTAR,MEAN_MOTION_DOT,MEAN_MOTION_DDOT,TLE_LINE0,TLE_LINE1,TLE_LINE2,SEMIMAJOR_AXIS,PERIOD,APOGEE,PERIGEE,DECAYED
51777.0,STARLINK-3625,PAYLOAD,2022-08-19 22:00:00,15.08797561,0.0001528,53.2181,45.0455,52.8123,94.9688,0.0034235,0.00054555,0.0,0 STARLINK-3625,1 51777U 22017K   22231.91667824  .00054555  00000-0  34235-2 0  9995,2 51777  53.2181  45.0455 0001528  52.8123  94.9688 15.08797561  1306,6918.01,95.44,540.932,538.818,0.0
51777.0,STARLINK-3625,PAYLOAD,2022-08-20 14:00:01,15.0884995,0.0001456,53.2185,42.0515,60.8059,110.118,-0.000996,-0.00016109,0.0,0 STARLINK-3625,1 51777U 22017K   22232.58334491 -.00016109  00000-0 -99600-3 0  9993,2 51777  53.2185  42.0515 0001456  60.8059 110.1180 15.08849950  1309,6917.85,95.437,540.722,538.7080000000002,0.0
51777.0,STARLINK-3625,PAYLOAD,2022-08-20 16:00:00,15.08848363,0.0001496,53.2183,41.678,57.8777,205.9469,-0.0010984,-0.0001773,0.0,0 STARLINK-3625,1 51777U 22017K   22232.66667824 -.00017730  00000-0 -10984-2 0  9999,2 51777  53.2183  41.6780 0001496  57.8777 205.9469 15.08848363 28267,6917.855,95.437,540.755,538.685,0.0
51777.0,STARLINK-3625,PAYLOAD,2022-08-20 22:00:00,15.08818126,0.0001565999999999,53.2184,40.5565,52.43600000000001,130.0935,0.0034286,0.00054669,0.0,0 STARLINK-3625,1 51777U 22017K   22232.91667824  .00054669  00000-0  34286-2 0  9998,2 51777  53.2184  40.5565 0001566  52.4360 130.0935 15.08818126  1300,6917.946999999999,95.439,540.896,538.729,0.0
51777.0,STARLINK-3625,PAYLOAD,2022-08-21 14:00:01,15.088457,0.0001551999999999,53.2187,37.5627,62.4385,143.2795,-0.0019719,-0.00031539,0.0,0 STARLINK-3625,1 51777U 22017K   22233.58334491 -.00031539  00000-0 -19719-2 0  9990,2 51777  53.2187  37.5627 0001552  62.4385 143.2795 15.08845700  1309,6917.863,95.437,540.802,538.654,0.0
51777.0,STARLINK-3625,PAYLOAD,2022-08-21 16:00:00,15.08835631,0.0001603,53.2185,37.189,60.0754,238.5434,-0.0012353,-0.00019892,0.0,0 STARLINK-3625,1 51777U 22017K   22233.66667824 -.00019892  00000-0 -12353-2 0  9993,2 51777  53.2185  37.1890 0001603  60.0754 238.5434 15.08835631 28417,6917.894,95.438,540.868,538.65,0.0
51777.0,STARLINK-3625,PAYLOAD,2022-08-22 00:00:00,15.08834312,0.0001615,53.2182,35.69300000000001,55.7565,254.4405,-9.5417e-05,-1.806e-05,0.0,0 STARLINK-3625,1 51777U 22017K   22234.00001157 -.00001806  00000-0 -95417-4 0  9993,2 51777  53.2182  35.6930 0001615  55.7565 254.4405 15.08834312  1305,6917.898,95.438,540.88,538.646,0.0
51777.0,STARLINK-3625,PAYLOAD,2022-08-22 06:00:00,15.08818957,0.0001488,53.2185,34.5694,62.4351,166.4592,0.0017327,0.0002738,0.0,0 STARLINK-3625,1 51777U 22017K   22234.25001157  .00027380  00000-0  17327-2 0  9995,2 51777  53.2185  34.5694 0001488  62.4351 166.4592 15.08818957 28506,6917.945,95.439,540.839,538.78,0.0
51777.0,STARLINK-3625,PAYLOAD,2022-08-22 12:00:00,15.08844909,0.0001521999999999,53.2187,33.4473,65.9368,81.6364,-0.00016765,-2.956e-05,0.0,0 STARLINK-3625,1 51777U 22017K   22234.50001157 -.00002956  00000-0 -16765-3 0  9993,2 51777  53.2187  33.4473 0001522  65.9368  81.6364 15.08844909  1306,6917.865,95.437,540.783,538.677,0.0
51777.0,STARLINK-3625,PAYLOAD,2022-08-22 22:00:00,15.08824784,0.0001609,53.2182,31.5785,56.3842,195.6919,0.0025385,0.00040327,0.0,0 STARLINK-3625,1 51777U 22017K   22234.91667824  .00040327  00000-0  25385-2 0  9996,2 51777  53.2182  31.5785 0001609  56.3842 195.6919 15.08824784  1304,6917.927,95.439,540.905,538.679,0.0
51777.0,STARLINK-3625,PAYLOAD,2022-08-23 06:00:00,15.08826196,0.0001455,53.2182,30.0803,64.1964,199.4796,0.0020927,0.00033162,0.0,0 STARLINK-3625,1 51777U 22017K   22235.25001157  .00033162  00000-0  20927-2 0  9991,2 51777  53.2182  30.0803 0001455  64.1964 199.4796 15.08826196 28651,6917.9230000000025,95.438,540.794,538.781,0.0
51777.0,STARLINK-3625,PAYLOAD,2022-08-23 14:00:01,15.0887449,0.000147,53.2182,28.5848,63.8769,211.3869,-0.0040333,-0.00063968,0.0,0 STARLINK-3625,1 51777U 22017K   22235.58334491 -.00063968  00000-0 -40333-2 0  9999,2 51777  53.2182  28.5848 0001470  63.8769 211.3869 15.08874490  1306,6917.775,95.435,540.6569999999998,538.623,0.0
51777.0,STARLINK-3625,PAYLOAD,2022-08-23 22:00:01,15.08811084,0.0001476,53.2177,27.0893,55.1761,231.7657,0.0018594,0.00029405,0.0,0 STARLINK-3625,1 51777U 22017K   22235.91668981  .00029405  00000-0  18594-2 0  9990,2 51777  53.2177  27.0893 0001476  55.1761 231.7657 15.08811084 28755,6917.969,95.439,540.855,538.813,0.0
51777.0,STARLINK-3625,PAYLOAD,2022-08-24 14:00:01,15.08844405,0.0001425,53.2178,24.0959,62.5257,247.5023,-0.0016991,-0.0002723,0.0,0 STARLINK-3625,1 51777U 22017K   22236.58334491 -.00027230  00000-0 -16991-2 0  9995,2 51777  53.2178  24.0959 0001425  62.5257 247.5023 15.08844405  1309,6917.8669999999975,95.437,540.7180000000002,538.746,0.0
51777.0,STARLINK-3625,PAYLOAD,2022-08-24 16:00:00,15.0883809,0.0001484,53.2177,23.7223,59.8943,343.033,-0.0012807,-0.00020611,0.0,0 STARLINK-3625,1 51777U 22017K   22236.66667824 -.00020611  00000-0 -12807-2 0  9991,2 51777  53.2177  23.7223 0001484  59.8943 343.0330 15.08838090 28860,6917.886,95.438,540.778,538.725,0.0
51777.0,STARLINK-3625,PAYLOAD,2022-08-24 22:00:00,15.08824307,0.0001476,53.2174,22.6002,55.3084,266.3081,0.0013123,0.0002065,0.0,0 STARLINK-3625,1 51777U 22017K   22236.91667824  .00020650  00000-0  13123-2 0  9992,2 51777  53.2174  22.6002 0001476  55.3084 266.3081 15.08824307  1304,6917.928000000001,95.439,540.814,538.7719999999998,0.0
51777.0,STARLINK-3625,PAYLOAD,2022-08-25 06:00:02,15.08811238,0.000136,53.2176,21.102,64.2429,269.0306,0.0027911,0.00044377,0.0,0 STARLINK-3625,1 51777U 22017K   22237.25002315  .00044377  00000-0  27911-2 0  9990,2 51777  53.2176  21.1020 0001360  64.2429 269.0306 15.08811238 28953,6917.968000000003,95.439,540.774,538.8919999999998,0.0
51777.0,STARLINK-3625,PAYLOAD,2022-08-25 14:00:01,15.08853449,0.0001465999999999,53.2177,19.6068,61.3514,283.4375,-0.0016764,-0.00026878,0.0,0 STARLINK-3625,1 51777U 22017K   22237.58334491 -.00026878  00000-0 -16764-2 0  9991,2 51777  53.2177  19.6068 0001466  61.3514 283.4375 15.08853449  1304,6917.839,95.437,540.7180000000002,538.69,0.0
51777.0,STARLINK-3625,PAYLOAD,2022-08-25 22:00:00,15.08838909,0.0001506999999999,53.2176,18.111,54.2876,302.0991,0.00092508,0.00014465,0.0,0 STARLINK-3625,1 51777U 22017K   22237.91667824  .00014465  00000-0  92508-3 0  9995,2 51777  53.2176  18.1110 0001507  54.2876 302.0991 15.08838909 29051,6917.884,95.438,540.7909999999998,538.706,0.0
51777.0,STARLINK-3625,PAYLOAD,2022-08-26 14:00:01,15.08869431,0.0001496999999999,53.2181,15.1177,58.85,320.7981,-0.0025799,-0.00041146,0.0,0 STARLINK-3625,1 51777U 22017K   22238.58335648 -.00041146  00000-0 -25799-2 0  9990,2 51777  53.2181  15.1177 0001497  58.8500 320.7981 15.08869431  1307,6917.79,95.436,540.691,538.62,0.0
51777.0,STARLINK-3625,PAYLOAD,2022-08-26 22:00:00,15.08842592,0.0001479,53.2181,13.6217,51.088,340.1119,-0.0012259999999999,-0.00019748,0.0,0 STARLINK-3625,1 51777U 22017K   22238.91667824 -.00019748  00000-0 -12260-2 0  9993,2 51777  53.2181  13.6217 0001479  51.0880 340.1119 15.08842592 29208,6917.871999999999,95.437,540.761,538.714,0.0
51777.0,STARLINK-3625,PAYLOAD,2022-08-27 14:00:01,15.08847361,0.0001476,53.2187,10.6288,55.0209,359.3503,-0.0015443,-0.00024786,0.0,0 STARLINK-3625,1 51777U 22017K   22239.58334491 -.00024786  00000-0 -15443-2 0  9992,2 51777  53.2187  10.6288 0001476  55.0209 359.3503 15.08847361  1304,6917.858,95.437,540.744,538.702,0.0
51777.0,STARLINK-3625,PAYLOAD,2022-08-27 22:00:00,15.08844981,0.000151,53.2187,9.1328,49.5367,16.4274,0.00023172,3.402e-05,0.0,0 STARLINK-3625,1 51777U 22017K   22239.91667824  .00003402  00000-0  23172-3 0  9997,2 51777  53.2187   9.1328 0001510  49.5367  16.4274 15.08844981 29350,6917.865,95.437,540.775,538.686,0.0
51777.0,STARLINK-3625,PAYLOAD,2022-08-28 14:00:01,15.08865998,0.0001448,53.2192,6.14,51.9071,37.2715,-0.0035753,-0.00056781,0.0,0 STARLINK-3625,1 51777U 22017K   22240.58334491 -.00056781  00000-0 -35753-2 0  9990,2 51777  53.2192   6.1400 0001448  51.9071  37.2715 15.08865998  1300,6917.801,95.436,540.668,538.664,0.0
51777.0,STARLINK-3625,PAYLOAD,2022-08-28 22:00:00,15.08842449,0.0001445,53.2191,4.6438,46.4665,54.3103,-0.00018413,-3.217e-05,0.0,0 STARLINK-3625,1 51777U 22017K   22240.91667824 -.00003217  00000-0 -18413-3 0  9997,2 51777  53.2191   4.6438 0001445  46.4665  54.3103 15.08842449  1305,6917.873000000001,95.437,540.738,538.738,0.0
51777.0,STARLINK-3625,PAYLOAD,2022-08-29 08:00:01,15.08847155,0.0001345,53.2196,2.7722,58.6117,146.6551,-0.0015617,-0.00025061,0.0,0 STARLINK-3625,1 51777U 22017K   22241.33334491 -.00025061  00000-0 -15617-2 0  9998,2 51777  53.2196   2.7722 0001345  58.6117 146.6551 15.08847155 29571,6917.859,95.437,540.654,538.793,0.0
51777.0,STARLINK-3625,PAYLOAD,2022-08-29 14:00:01,15.08826876,0.0001505,53.2194,1.6514,52.8697,71.0975,-0.0012509,-0.00020134,0.0,0 STARLINK-3625,1 51777U 22017K   22241.58334491 -.00020134  00000-0 -12509-2 0  9998,2 51777  53.2194   1.6514 0001505  52.8697  71.0975 15.08826876  1302,6917.920999999999,95.438,540.827,538.744,0.0
51777.0,STARLINK-3625,PAYLOAD,2022-08-29 22:00:00,15.0883565,0.0001509,53.2191,0.1551,49.7405,85.7976,-0.00064902,-0.00010601,0.0,0 STARLINK-3625,1 51777U 22017K   22241.91667824 -.00010601  00000-0 -64902-3 0  9997,2 51777  53.2191   0.1551 0001509  49.7405  85.7976 15.08835650  1303,6917.894,95.438,540.803,538.715,0.0
51777.0,STARLINK-3625,PAYLOAD,2022-08-30 06:00:00,15.08835171,0.0001478,53.2193,358.6575,60.8869,86.26799999999999,-6.4446e-05,-1.313e-05,0.0,0 STARLINK-3625,1 51777U 22017K   22242.25001157 -.00001313  00000-0 -64446-4 0  9990,2 51777  53.2193 358.6575 0001478  60.8869  86.2680 15.08835171 29705,6917.895,95.438,540.783,538.738,0.0
